H1 CPF 01  gfz 2021 02 12 01  5431 terrasarx 
H2 0702601  6201 31698    2021 02 12 00 59 42 2021 02 17 00 00 42   120 1 1  0 0 0
H9
10 0 59260  59022.000000  0    -972552.128  -1398304.021   6663954.973
10 0 59260  59142.000000  0   -1799849.478  -1715133.204   6413693.576
10 0 59260  59262.000000  0   -2600895.100  -1987780.352   6050702.659
10 0 59260  59382.000000  0   -3360883.262  -2212064.060   5581325.885
10 0 59260  59502.000000  0   -4065649.612  -2384896.020   5013779.088
10 0 59260  59622.000000  0   -4701940.492  -2504323.982   4358010.980
10 0 59260  59742.000000  0   -5257668.558  -2569550.306   3625532.445
10 0 59260  59862.000000  0   -5722149.426  -2580925.738   2829217.287
10 0 59260  59982.000000  0   -6086315.511  -2539919.572   1983077.173
10 0 59260  60102.000000  0   -6342902.318  -2449067.247   1102012.370
10 0 59260  60222.000000  0   -6486599.284  -2311893.735    201541.811
10 0 59260  60342.000000  0   -6514161.923  -2132815.807   -702477.712
10 0 59260  60462.000000  0   -6424483.279  -1917025.639  -1594140.686
10 0 59260  60582.000000  0   -6218620.344  -1670359.108  -2457781.560
10 0 59260  60702.000000  0   -5899777.221  -1399152.327  -3278256.260
10 0 59260  60822.000000  0   -5473246.026  -1110090.192  -4041211.202
10 0 59260  60942.000000  0   -4946307.730   -810050.757  -4733334.530
10 0 59260  61062.000000  0   -4328095.772   -505948.915  -5342585.031
10 0 59260  61182.000000  0   -3629425.691   -204583.850  -5858394.538
10 0 59260  61302.000000  0   -2862596.212     87506.861  -6271840.657
10 0 59260  61422.000000  0   -2041167.315    364183.043  -6575788.924
10 0 59260  61542.000000  0   -1179718.563    619824.750  -6765004.792
10 0 59260  61662.000000  0    -293592.363    849441.447  -6836233.845
10 0 59260  61782.000000  0     601373.332   1048766.094  -6788250.410
10 0 59260  61902.000000  0    1489120.015   1214331.269  -6621878.081
10 0 59260  62022.000000  0    2353651.321   1343528.744  -6339978.703
10 0 59260  62142.000000  0    3179316.118   1434650.425  -5947408.121
10 0 59260  62262.000000  0    3951088.030   1486909.545  -5450939.831
10 0 59260  62382.000000  0    4654837.496   1500442.489  -4859159.566
10 0 59260  62502.000000  0    5277594.550   1476291.402  -4182328.589
10 0 59260  62622.000000  0    5807794.636   1416367.014  -3432215.345
10 0 59260  62742.000000  0    6235502.522   1323392.208  -2621899.181
10 0 59260  62862.000000  0    6552610.679   1200827.502  -1765547.779
10 0 59260  62982.000000  0    6753005.577   1052779.855   -878169.802
10 0 59260  63102.000000  0    6832696.174    883895.949     24651.549
10 0 59260  63222.000000  0    6789900.344    699243.687    927038.232
10 0 59260  63342.000000  0    6625089.201    504184.368   1813103.533
10 0 59260  63462.000000  0    6340986.136    304237.610   2667241.717
10 0 59260  63582.000000  0    5942518.383    104943.987   3474411.363
10 0 59260  63702.000000  0    5436725.162    -88272.101   4220407.054
10 0 59260  63822.000000  0    4832624.398   -270233.666   4892112.220
10 0 59260  63942.000000  0    4141042.720   -436136.162   5477732.011
10 0 59260  64062.000000  0    3374409.832   -581661.854   5966997.763
10 0 59260  64182.000000  0    2546526.858   -703080.118   6351342.183
10 0 59260  64302.000000  0    1672311.880   -797333.430   6624043.497
10 0 59260  64422.000000  0     767527.104   -862106.854   6780338.284
10 0 59260  64542.000000  0    -151508.440   -895879.750   6817499.131
10 0 59260  64662.000000  0   -1068213.129   -897958.824   6734877.956
10 0 59260  64782.000000  0   -1966040.573   -868492.188   6533915.993
10 0 59260  64902.000000  0   -2828776.515   -808463.550   6218119.893
10 0 59260  65022.000000  0   -3640831.041   -719667.083   5793005.718
10 0 59260  65142.000000  0   -4387523.516   -604663.669   5266009.528
10 0 59260  65262.000000  0   -5055354.196   -466719.314   4646363.595
10 0 59260  65382.000000  0   -5632256.028   -309726.311   3944939.203
10 0 59260  65502.000000  0   -6107821.406   -138108.858   3174058.784
10 0 59260  65622.000000  0   -6473499.390     43285.035   2347281.428
10 0 59260  65742.000000  0   -6722760.215    229303.481   1479162.959
10 0 59260  65862.000000  0   -6851220.587    414618.537    584994.404
10 0 59260  65982.000000  0   -6856726.380    593859.156   -319475.163
10 0 59260  66102.000000  0   -6739389.869    761746.282  -1218325.387
10 0 59260  66222.000000  0   -6501580.244    913225.988  -2095753.382
10 0 59260  66342.000000  0   -6147871.114   1043597.372  -2936357.853
10 0 59260  66462.000000  0   -5684944.186   1148632.982  -3725416.877
10 0 59260  66582.000000  0   -5121449.210   1224687.108  -4449147.718
10 0 59260  66702.000000  0   -4467829.400   1268790.258  -5094944.878
10 0 59260  66822.000000  0   -3736115.726   1278727.664  -5651593.146
10 0 59260  66942.000000  0   -2939696.391   1253100.358  -6109452.773
10 0 59260  67062.000000  0   -2093066.179   1191367.189  -6460615.453
10 0 59260  67182.000000  0   -1211560.213   1093869.087  -6699029.672
10 0 59260  67302.000000  0    -311077.486    961833.863  -6820593.314
10 0 59260  67422.000000  0     592199.679    797362.060  -6823215.521
10 0 59260  67542.000000  0    1482088.354    603394.341  -6706850.690
10 0 59260  67662.000000  0    2342689.636    383659.960  -6473500.172
10 0 59260  67782.000000  0    3158666.708    142607.794  -6127181.224
10 0 59260  67902.000000  0    3915514.801   -114679.353  -5673864.663
10 0 59260  68022.000000  0    4599816.964   -382586.697  -5121381.462
10 0 59260  68142.000000  0    5199485.209   -655083.095  -4479300.119
10 0 59260  68262.000000  0    5703981.621   -925849.477  -3758771.419
10 0 59260  68382.000000  0    6104513.108  -1188417.141  -2972343.724
10 0 59260  68502.000000  0    6394196.352  -1436313.593  -2133750.803
10 0 59260  68622.000000  0    6568188.771  -1663212.407  -1257674.587
10 0 59260  68742.000000  0    6623780.643  -1863083.194   -359486.808
10 0 59260  68862.000000  0    6560446.130  -2030338.132    545024.949
10 0 59260  68982.000000  0    6379850.929  -2159971.436   1439942.427
10 0 59260  69102.000000  0    6085814.997  -2247687.448   2309505.712
10 0 59260  69222.000000  0    5684231.916  -2290014.856   3138399.879
10 0 59260  69342.000000  0    5182946.175  -2284402.615   3912032.722
10 0 59260  69462.000000  0    4591591.945  -2229296.329   4616795.800
10 0 59260  69582.000000  0    3921400.729  -2124192.739   5240305.320
10 0 59260  69702.000000  0    3184979.659  -1969672.397   5771620.659
10 0 59260  69822.000000  0    2396064.955  -1767408.547   6201432.622
10 0 59260  69942.000000  0    1569259.766  -1520152.905   6522220.698
10 0 59260  70062.000000  0     719759.629  -1231699.202   6728378.859
10 0 59260  70182.000000  0    -136929.279   -906824.231   6816307.774
10 0 59260  70302.000000  0    -985273.121   -551207.852   6784472.616
10 0 59260  70422.000000  0   -1809990.614   -171333.880   6633427.770
10 0 59260  70542.000000  0   -2596326.928    225627.715   6365807.877
10 0 59260  70662.000000  0   -3330317.276    631955.201   5986285.573
10 0 59260  70782.000000  0   -3999036.905   1039523.721   5501495.728
10 0 59260  70902.000000  0   -4590833.635   1439965.869   4919925.809
10 0 59260  71022.000000  0   -5095537.639   1824842.210   4251772.933
10 0 59260  71142.000000  0   -5504644.354   2185817.917   3508768.981
10 0 59260  71262.000000  0   -5811465.652   2514841.444   2703976.687
10 0 59260  71382.000000  0   -6011247.217   2804321.615   1851560.121
10 0 59260  71502.000000  0   -6101249.224   3047299.148    966532.158
10 0 59260  71622.000000  0   -6080786.051   3237607.805     64482.705
10 0 59260  71742.000000  0   -5951223.703   3370020.581   -838704.080
10 0 59260  71862.000000  0   -5715936.503   3440377.142  -1727138.269
10 0 59260  71982.000000  0   -5380223.443   3445690.125  -2585213.204
10 0 59260  72102.000000  0   -4951184.541   3384226.260  -3397886.715
10 0 59260  72222.000000  0   -4437563.398   3255561.350  -4150948.321
10 0 59260  72342.000000  0   -3849559.863   3060607.824  -4831266.486
10 0 59260  72462.000000  0   -3198619.007   2801615.186  -5427012.611
10 0 59260  72582.000000  0   -2497202.350   2482144.086  -5927857.450
10 0 59260  72702.000000  0   -1758545.706   2107015.557  -6325140.976
10 0 59260  72822.000000  0    -996406.977   1682234.973  -6612010.390
10 0 59260  72942.000000  0    -224812.262   1214894.397  -6783526.625
10 0 59260  73062.000000  0     542197.391    713054.278  -6836739.878
10 0 59260  73182.000000  0    1290814.713    185607.238  -6770736.134
10 0 59260  73302.000000  0    2007710.335   -357876.500  -6586651.421
10 0 59260  73422.000000  0    2680264.195   -907318.292  -6287653.441
10 0 59260  73542.000000  0    3296784.399  -1452313.129  -5878893.295
10 0 59260  73662.000000  0    3846708.915  -1982321.322  -5367425.678
10 0 59260  73782.000000  0    4320789.492  -2486869.509  -4762099.179
10 0 59260  73902.000000  0    4711252.198  -2955756.859  -4073413.574
10 0 59260  74022.000000  0    5011931.282  -3379261.033  -3313347.717
10 0 59260  74142.000000  0    5218375.242  -3748340.550  -2495159.373
10 0 59260  74262.000000  0    5327921.187  -4054829.207  -1633157.869
10 0 59260  74382.000000  0    5339734.237  -4291617.166   -742454.379
10 0 59260  74502.000000  0    5254811.126  -4452814.745    161306.179
10 0 59260  74622.000000  0    5075946.710  -4533894.473   1062226.510
10 0 59260  74742.000000  0    4807662.858  -4531805.656   1944445.515
10 0 59260  74862.000000  0    4456102.509  -4445059.021   2792426.453
10 0 59260  74982.000000  0    4028892.085  -4273779.283   3591238.170
10 0 59260  75102.000000  0    3534975.339  -4019725.631   4326824.225
10 0 59260  75222.000000  0    2984422.021  -3686278.277   4986254.178
10 0 59260  75342.000000  0    2388218.067  -3278391.604   5557950.884
10 0 59260  75462.000000  0    1758042.194  -2802516.746   6031892.048
99
